NORAD_CAT_ID,OBJECT_NAME,OBJECT_TYPE,EPOCH,MEAN_MOTION,ECCENTRICITY,INCLINATION,RA_OF_ASC_NODE,ARG_OF_PERICENTER,MEAN_ANOMALY,BSTAR,MEAN_MOTION_DOT,MEAN_MOTION_DDOT,TLE_LINE0,TLE_LINE1,TLE_LINE2,SEMIMAJOR_AXIS,PERIOD,APOGEE,PERIGEE,DECAYED
52689.0,STARLINK-4078,PAYLOAD,2023-04-16 12:41:52,15.08845961,9.14e-05,53.2167,214.3882,90.5176,269.592,4.4476e-05,4.2e-06,0.0,0 STARLINK-4078,1 52689U 22053AK  23106.52907515  .00000420  00000-0  44476-4 0  9993,2 52689  53.2167 214.3882 0000914  90.5176 269.5920 15.08845961 51406,6917.862,95.437,540.359,539.095,0.0
52689.0,STARLINK-4078,PAYLOAD,2023-04-16 23:49:34,15.08834336,7.83e-05,53.2159,212.3062,89.8702,270.238,0.00016707,2.372e-05,0.0,0 STARLINK-4078,1 52689U 22053AK  23106.99275736  .00002372  00000-0  16707-3 0  9990,2 52689  53.2159 212.3062 0000783  89.8702 270.2380 15.08834336 51071,6917.898,95.438,540.304,539.221,0.0
52689.0,STARLINK-4078,PAYLOAD,2023-04-17 12:32:40,15.0883349,0.0001252,53.2176,209.9274,98.2302,261.8832,4.2569e-05,3.9e-06,0.0,0 STARLINK-4078,1 52689U 22053AK  23107.52268630  .00000390  00000-0  42569-4 0  9999,2 52689  53.2176 209.9274 0001252  98.2302 261.8832 15.08833490 51156,6917.9,95.438,540.631,538.899,0.0
52689.0,STARLINK-4078,PAYLOAD,2023-04-17 14:08:02,15.08840235,9.87e-05,53.2163,209.6283,90.1121,269.9985,5.7515e-05,6.28e-06,0.0,0 STARLINK-4078,1 52689U 22053AK  23107.58892096  .00000628  00000-0  57515-4 0  9995,2 52689  53.2163 209.6283 0000987  90.1121 269.9985 15.08840235 51167,6917.88,95.438,540.427,539.062,0.0
52689.0,STARLINK-4078,PAYLOAD,2023-04-18 07:37:17,15.08836445,0.0001195,53.2168,206.3584,101.5716,258.541,-1.0782e-05,-4.59e-06,0.0,0 STARLINK-4078,1 52689U 22053AK  23108.31756792 -.00000459  00000-0 -10782-4 0  9998,2 52689  53.2168 206.3584 0001195 101.5716 258.5410 15.08836445 51276,6917.891,95.438,540.583,538.93,0.0
52689.0,STARLINK-4078,PAYLOAD,2023-04-18 15:34:12,15.08849109,8.82e-05,53.2157,204.8707,99.5395,260.5696,7.6513e-05,9.3e-06,0.0,0 STARLINK-4078,1 52689U 22053AK  23108.64875588  .00000930  00000-0  76513-4 0  9995,2 52689  53.2157 204.8707 0000882  99.5395 260.5696 15.08849109 51321,6917.853,95.437,540.328,539.107,0.0
52689.0,STARLINK-4078,PAYLOAD,2023-04-18 23:31:09,15.08838212,0.0001262,53.2167,203.386,79.2944,280.819,3.9097e-05,3.34e-06,0.0,0 STARLINK-4078,1 52689U 22053AK  23108.97996578  .00000334  00000-0  39097-4 0  9998,2 52689  53.2167 203.3860 0001262  79.2944 280.8190 15.08838212 51376,6917.886,95.438,540.624,538.878,0.0
52689.0,STARLINK-4078,PAYLOAD,2023-04-19 05:52:41,15.08832875,0.0001417,53.2168,202.196,80.0529,280.0623,0.00012055,1.631e-05,0.0,0 STARLINK-4078,1 52689U 22053AK  23109.24492822  .00001631  00000-0  12055-3 0  9997,2 52689  53.2168 202.1960 0001417  80.0529 280.0623 15.08832875 51817,6917.902,95.438,540.747,538.787,0.0
52689.0,STARLINK-4078,PAYLOAD,2023-04-19 13:49:37,15.08842348,0.0001384,53.2165,200.7088,79.0504,281.0643,9.4464e-05,1.216e-05,0.0,0 STARLINK-4078,1 52689U 22053AK  23109.57612414  .00001216  00000-0  94464-4 0  9998,2 52689  53.2165 200.7088 0001384  79.0504 281.0643 15.08842348 51867,6917.873,95.437,540.696,538.781,0.0
52689.0,STARLINK-4078,PAYLOAD,2023-04-20 05:43:28,15.0883119,0.0001149,53.2164,197.736,80.4759,279.6363,0.00019505,2.817e-05,0.0,0 STARLINK-4078,1 52689U 22053AK  23110.23852675  .00002817  00000-0  19505-3 0  9998,2 52689  53.2164 197.7360 0001149  80.4759 279.6363 15.08831190 51967,6917.907,95.438,540.567,538.977,0.0
52689.0,STARLINK-4078,PAYLOAD,2023-04-20 16:51:09,15.08854059,0.0001175,53.216,195.6519,91.1224,268.9903,9.4338e-05,1.214e-05,0.0,0 STARLINK-4078,1 52689U 22053AK  23110.70219323  .00001214  00000-0  94338-4 0  9995,2 52689  53.2160 195.6519 0001175  91.1224 268.9903 15.08854059 51635,6917.837,95.437,540.515,538.89,0.0
52689.0,STARLINK-4078,PAYLOAD,2023-04-20 23:12:43,15.08832746,0.0001393,53.2166,194.4654,73.3581,286.7564,-6.5515e-06,-3.92e-06,0.0,0 STARLINK-4078,1 52689U 22053AK  23110.96717211 -.00000392  00000-0 -65515-5 0  9996,2 52689  53.2166 194.4654 0001393  73.3581 286.7564 15.08832746 51672,6917.903,95.438,540.731,538.804,0.0
52689.0,STARLINK-4078,PAYLOAD,2023-04-21 11:55:48,15.08834412,0.000137,53.2153,192.0856,83.728,276.3868,5.0547e-06,-2.07e-06,0.0,0 STARLINK-4078,1 52689U 22053AK  23111.49709255 -.00000207  00000-0  50547-5 0  9997,2 52689  53.2153 192.0856 0001370  83.7280 276.3868 15.08834412 52150,6917.897,95.438,540.71,538.815,0.0
52689.0,STARLINK-4078,PAYLOAD,2023-04-22 05:25:02,15.08842145,0.0001138,53.2152,188.8124,96.7048,263.4074,2.0283e-05,3.5e-07,0.0,0 STARLINK-4078,1 52689U 22053AK  23112.22572557  .00000035  00000-0  20283-4 0  9993,2 52689  53.2152 188.8124 0001138  96.7048 263.4074 15.08842145 51863,6917.874,95.437,540.526,538.952,0.0
52689.0,STARLINK-4078,PAYLOAD,2023-04-22 13:21:57,15.08849536,0.0001222,53.2148,187.3255,92.4528,267.6604,8.0177e-05,9.89e-06,0.0,0 STARLINK-4078,1 52689U 22053AK  23112.55691835  .00000989  00000-0  80177-4 0  9996,2 52689  53.2148 187.3255 0001222  92.4528 267.6604 15.08849536 52314,6917.851,95.437,540.562,538.871,0.0
52689.0,STARLINK-4078,PAYLOAD,2023-04-22 14:57:20,15.08865378,0.0001581,53.2147,187.0279,107.1966,252.92,-0.00013421,-2.425e-05,0.0,0 STARLINK-4078,1 52689U 22053AK  23112.62315224 -.00002425  00000-0 -13421-3 0  9995,2 52689  53.2147 187.0279 0001581 107.1966 252.9200 15.08865378 52326,6917.803,95.436,540.762,538.574,0.0
52689.0,STARLINK-4078,PAYLOAD,2023-04-23 11:37:23,15.08831409,0.0001176,53.2153,183.1612,88.3937,271.719,3.1007e-05,2.06e-06,0.0,0 STARLINK-4078,1 52689U 22053AK  23113.48429682  .00000206  00000-0  31007-4 0  9998,2 52689  53.2153 183.1612 0001176  88.3937 271.7190 15.08831409 52458,6917.907,95.438,540.585,538.958,0.0
52689.0,STARLINK-4078,PAYLOAD,2023-04-24 05:06:36,15.08858424,0.0001191,53.2156,179.8918,98.2479,261.8648,0.00014665,2.048e-05,0.0,0 STARLINK-4078,1 52689U 22053AK  23114.21291832  .00002048  00000-0  14665-3 0  9990,2 52689  53.2156 179.8918 0001191  98.2479 261.8648 15.08858424 52162,6917.824,95.436,540.513,538.865,0.0
52689.0,STARLINK-4078,PAYLOAD,2023-04-25 11:18:59,15.08805193,0.0001231,53.2159,174.2437,71.1484,288.9641,-0.00026957,-4.571e-05,0.0,0 STARLINK-4078,1 52689U 22053AK  23115.47152238 -.00004571  00000-0 -26957-3 0  9997,2 52689  53.2159 174.2437 0001231  71.1484 288.9641 15.08805193 52350,6917.987,95.44,540.703,539.0,0.0
52689.0,STARLINK-4078,PAYLOAD,2023-04-25 12:54:22,15.08805466,0.0001249,53.2161,173.9464,71.3707,288.7421,-0.0002636,-4.477e-05,0.0,0 STARLINK-4078,1 52689U 22053AK  23115.53776317 -.00004477  00000-0 -26360-3 0  9997,2 52689  53.2161 173.9464 0001249  71.3707 288.7421 15.08805466 52760,6917.986,95.44,540.715,538.987,0.0
52689.0,STARLINK-4078,PAYLOAD,2023-04-26 11:09:45,15.08829503,0.0001361,53.2153,169.7828,72.6263,287.4878,-3.3952e-05,-8.28e-06,0.0,0 STARLINK-4078,1 52689U 22053AK  23116.46511203 -.00000828  00000-0 -33952-4 0  9993,2 52689  53.2153 169.7828 0001361  72.6263 287.4878 15.08829503 52900,6917.912,95.438,540.719,538.836,0.0
52689.0,STARLINK-4078,PAYLOAD,2023-04-26 20:42:04,15.08811275,0.000143,53.2154,167.9977,54.2331,305.8794,0.00042852,6.533e-05,0.0,0 STARLINK-4078,1 52689U 22053AK  23116.86255360  .00006533  00000-0  42852-3 0  9991,2 52689  53.2154 167.9977 0001430  54.2331 305.8794 15.08811275 52960,6917.968,95.439,540.822,538.844,0.0
52689.0,STARLINK-4078,PAYLOAD,2023-04-27 11:00:33,15.08849538,0.0001409,53.2137,165.3212,51.4407,308.6711,0.00081107,0.00012647,0.0,0 STARLINK-4078,1 52689U 22053AK  23117.45871632  .00012647  00000-0  81107-3 0  9992,2 52689  53.2137 165.3212 0001409  51.4407 308.6711 15.08849538 52653,6917.851,95.437,540.691,538.742,0.0
52689.0,STARLINK-4078,PAYLOAD,2023-04-28 09:15:55,15.08880402,0.0001621,53.2139,161.158,53.2381,306.876,0.00078185,0.00012191,0.0,0 STARLINK-4078,1 52689U 22053AK  23118.38605729  .00012191  00000-0  78185-3 0  9993,2 52689  53.2139 161.1580 0001621  53.2381 306.8760 15.08880402 53193,6917.757,95.435,540.743,538.501,0.0
52689.0,STARLINK-4078,PAYLOAD,2023-04-28 20:23:36,15.08859227,0.0001628,53.2143,159.0772,54.9462,305.1683,-0.00019678,-3.42e-05,0.0,0 STARLINK-4078,1 52689U 22053AK  23118.84973241 -.00003420  00000-0 -19678-3 0  9990,2 52689  53.2143 159.0772 0001628  54.9462 305.1683 15.08859227 52862,6917.822,95.436,540.813,538.56,0.0
52689.0,STARLINK-4078,PAYLOAD,2023-04-29 09:06:41,15.08849757,0.0001489,53.2146,156.6972,66.447,293.6678,-0.00014935,-2.665e-05,0.0,0 STARLINK-4078,1 52689U 22053AK  23119.37965172 -.00002665  00000-0 -14935-3 0  9994,2 52689  53.2146 156.6972 0001489  66.4470 293.6678 15.08849757 52943,6917.851,95.437,540.746,538.685,0.0
52689.0,STARLINK-4078,PAYLOAD,2023-04-30 08:57:29,15.08842018,0.0001413,53.2145,152.2352,73.2006,286.9141,-0.00010854,-2.015e-05,0.0,0 STARLINK-4078,1 52689U 22053AK  23120.37325316 -.00002015  00000-0 -10854-3 0  9991,2 52689  53.2145 152.2352 0001413  73.2006 286.9141 15.08842018 53094,6917.874,95.437,540.717,538.762,0.0
52689.0,STARLINK-4078,PAYLOAD,2023-05-01 11:59:02,15.08836369,0.000152,53.2145,147.1803,79.6744,280.442,7.5637e-05,9.16e-06,0.0,0 STARLINK-4078,1 52689U 22053AK  23121.49933924  .00000916  00000-0  75637-4 0  9992,2 52689  53.2145 147.1803 0001520  79.6744 280.4420 15.08836369 53266,6917.891,95.438,540.808,538.705,0.0
52689.0,STARLINK-4078,PAYLOAD,2023-05-01 13:34:25,15.08837675,0.0001521,53.2146,146.8831,78.9616,281.1547,8.8759e-05,1.125e-05,0.0,0 STARLINK-4078,1 52689U 22053AK  23121.56557860  .00001125  00000-0  88759-4 0  9993,2 52689  53.2146 146.8831 0001521  78.9616 281.1547 15.08837675 53679,6917.887,95.438,540.805,538.7,0.0
52689.0,STARLINK-4078,PAYLOAD,2023-05-02 11:49:49,15.08843151,0.0001526,53.2155,142.7203,73.7631,286.3529,0.00013779,1.906e-05,0.0,0 STARLINK-4078,1 52689U 22053AK  23122.49293756  .00001906  00000-0  13779-3 0  9993,2 52689  53.2155 142.7203 0001526  73.7631 286.3529 15.08843151 53811,6917.871,95.437,540.791,538.68,0.0
